{
  "tiles": ["http://localhost:6533/poi/{z}/{x}/{y}.pbf"],
  "name": "OpenMapTiles",
  "format": "pbf",
  "basename": "v3.7.mbtiles",
  "id": "openmaptiles",
  "attribution": "Qwant Maps <a href=\"http://www.openmaptiles.org/\" target=\"_blank\">&copy; OpenMapTiles</a> <a href=\"http://www.openstreetmap.org/about/\" target=\"_blank\">&copy; OpenStreetMap contributors</a>",
  "center": [-12.2168, 28.6135, 4],
  "description": "Une adaptation des tuiles OpenMapTiles pour Qwant Maps - juste les POIs",
  "maxzoom": 14,
  "minzoom": 0,
  "pixel_scale": "256",
  "vector_layers": [{
    "maxzoom": 14,
    "fields": {
      "name:mt": "String",
      "name:pt": "String",
      "name:az": "String",
      "name:ka": "String",
      "name:rm": "String",
      "name:ko": "String",
      "name:kn": "String",
      "name:ar": "String",
      "name:cs": "String",
      "rank": "Number",
      "name_de": "String",
      "name:ro": "String",
      "name:it": "String",
      "name_int": "String",
      "name:ru": "String",
      "name:pl": "String",
      "name:ca": "String",
      "name:lv": "String",
      "name:bg": "String",
      "name:cy": "String",
      "name:fi": "String",
      "name:he": "String",
      "name:da": "String",
      "subclass": "String",
      "name:de": "String",
      "name:tr": "String",
      "name:fr": "String",
      "name:mk": "String",
      "name:nonlatin": "String",
      "name:fy": "String",
      "name:be": "String",
      "name:zh": "String",
      "name:sr": "String",
      "name:sl": "String",
      "name:nl": "String",
      "name:ja": "String",
      "name:lt": "String",
      "name:no": "String",
      "name:kk": "String",
      "name:ko_rm": "String",
      "name:ja_rm": "String",
      "name:br": "String",
      "name:bs": "String",
      "name:lb": "String",
      "name:la": "String",
      "name:sk": "String",
      "name:uk": "String",
      "name:hy": "String",
      "name:sv": "String",
      "name_en": "String",
      "name:hu": "String",
      "name:hr": "String",
      "class": "String",
      "name:sq": "String",
      "name:el": "String",
      "name:ga": "String",
      "name:en": "String",
      "name": "String",
      "name:gd": "String",
      "name:ja_kana": "String",
      "name:is": "String",
      "name:th": "String",
      "agg_stop": "Number",
      "name:latin": "String",
      "name:sr-Latn": "String",
      "name:et": "String",
      "name:es": "String"
    },
    "minzoom": 0,
    "id": "poi",
    "description": ""
  }],
  "maskLevel": "8",
  "bounds": [-180, -85.0511, 180, 85.0511],
  "planettime": "1508716800000",
  "version": "3.6.2",
  "tilejson": "2.0.0"
}
